{
  "type": "FeatureCollection",
  "features": [
    {
      "type": "Feature",
      "properties": {
        "norad_id": 44624,
        "name": "EUTELSAT 5 WEST B (EGNOS/PRN 121)",
        "group": "gnss",
        "lat": 0.018486199390260104,
        "lon": 148.51779510769833,
        "alt_km": 35791.4898950942,
        "timestamp": "2025-12-10T04:57:29.861713+00:00",
        "meta_object_name": "EUTELSAT 5 WEST B (EGNOS/PRN 121)",
        "meta_object_id": "2019-067A",
        "meta_epoch": "2025-12-09T04:59:20.915808",
        "meta_mean_motion": 1.00271075,
        "meta_eccentricity": 0.0003516,
        "meta_inclination": 0.0644,
        "meta_ra_of_asc_node": 341.3724,
        "meta_arg_of_pericenter": 277.7318,
        "meta_mean_anomaly": 248.9352,
        "meta_ephemeris_type": 0,
        "meta_classification_type": "U",
        "meta_norad_cat_id": 44624,
        "meta_element_set_no": 999,
        "meta_rev_at_epoch": 2253,
        "meta_bstar": 0,
        "meta_mean_motion_dot": -4e-07,
        "meta_mean_motion_ddot": 0,
        "tle_line1": "1 44624U 19067A   25343.20788097 -.00000040  00000+0  00000+0 0  9994",
        "tle_line2": "2 44624   0.0644 341.3724 0003516 277.7318 248.9352  1.00271075 22538"
      },
      "geometry": {
        "type": "Point",
        "coordinates": [
          148.51779510769833,
          0.018486199390260104
        ]
      }
    },
    {
      "type": "Feature",
      "properties": {
        "norad_id": 44709,
        "name": "BEIDOU-3 IGSO-3 (C40)",
        "group": "gnss",
        "lat": -12.732123399709907,
        "lon": -86.13243611832263,
        "alt_km": 35963.742180311165,
        "timestamp": "2025-12-10T04:57:29.861725+00:00",
        "meta_object_name": "BEIDOU-3 IGSO-3 (C40)",
        "meta_object_id": "2019-073A",
        "meta_epoch": "2025-11-20T07:11:22.740000",
        "meta_mean_motion": 1.00250097,
        "meta_eccentricity": 0.0044538,
        "meta_inclination": 55.163,
        "meta_ra_of_asc_node": 283.159,
        "meta_arg_of_pericenter": 191.5856,
        "meta_mean_anomaly": 168.2409,
        "meta_ephemeris_type": 0,
        "meta_classification_type": "U",
        "meta_norad_cat_id": 44709,
        "meta_element_set_no": 999,
        "meta_rev_at_epoch": 2236,
        "meta_bstar": 0,
        "meta_mean_motion_dot": -2.06e-06,
        "meta_mean_motion_ddot": 0,
        "tle_line1": "1 44709U 19073A   25324.29956875 -.00000206  00000+0  00000+0 0  9998",
        "tle_line2": "2 44709  55.1630 283.1590 0044538 191.5856 168.2409  1.00250097 22360"
      },
      "geometry": {
        "type": "Point",
        "coordinates": [
          -86.13243611832263,
          -12.732123399709907
        ]
      }
    },
    {
      "type": "Feature",
      "properties": {
        "norad_id": 44793,
        "name": "BEIDOU-3 M22 (C44)",
        "group": "gnss",
        "lat": 54.09458775446607,
        "lon": 34.34708121030435,
        "alt_km": 21515.18284261615,
        "timestamp": "2025-12-10T04:57:29.861745+00:00",
        "meta_object_name": "BEIDOU-3 M22 (C44)",
        "meta_object_id": "2019-078A",
        "meta_epoch": "2025-12-09T12:53:52.564416",
        "meta_mean_motion": 1.86231732,
        "meta_eccentricity": 0.0005656,
        "meta_inclination": 54.1112,
        "meta_ra_of_asc_node": 306.4982,
        "meta_arg_of_pericenter": 23.0294,
        "meta_mean_anomaly": 336.986,
        "meta_ephemeris_type": 0,
        "meta_classification_type": "U",
        "meta_norad_cat_id": 44793,
        "meta_element_set_no": 999,
        "meta_rev_at_epoch": 4111,
        "meta_bstar": 0,
        "meta_mean_motion_dot": -7.7e-07,
        "meta_mean_motion_ddot": 0,
        "tle_line1": "1 44793U 19078A   25343.53741394 -.00000077  00000+0  00000+0 0  9998",
        "tle_line2": "2 44793  54.1112 306.4982 0005656  23.0294 336.9860  1.86231732 41112"
      },
      "geometry": {
        "type": "Point",
        "coordinates": [
          34.34708121030435,
          54.09458775446607
        ]
      }
    },
    {
      "type": "Feature",
      "properties": {
        "norad_id": 44794,
        "name": "BEIDOU-3 M21 (C43)",
        "group": "gnss",
        "lat": -2.924417661410356,
        "lon": -55.69851431058818,
        "alt_km": 21518.605617850433,
        "timestamp": "2025-12-10T04:57:29.861759+00:00",
        "meta_object_name": "BEIDOU-3 M21 (C43)",
        "meta_object_id": "2019-078B",
        "meta_epoch": "2025-12-09T03:18:47.736000",
        "meta_mean_motion": 1.86227438,
        "meta_eccentricity": 0.00038519,
        "meta_inclination": 54.0853,
        "meta_ra_of_asc_node": 306.4778,
        "meta_arg_of_pericenter": 10.0441,
        "meta_mean_anomaly": 349.953,
        "meta_ephemeris_type": 0,
        "meta_classification_type": "U",
        "meta_norad_cat_id": 44794,
        "meta_element_set_no": 999,
        "meta_rev_at_epoch": 4111,
        "meta_bstar": 0,
        "meta_mean_motion_dot": -7.6e-07,
        "meta_mean_motion_ddot": 0,
        "tle_line1": "1 44794U 19078B   25343.13805250 -.00000076  00000+0  00000+0 0  9996",
        "tle_line2": "2 44794  54.0853 306.4778 0003851  10.0441 349.9530  1.86227438 41118"
      },
      "geometry": {
        "type": "Point",
        "coordinates": [
          -55.69851431058818,
          -2.924417661410356
        ]
      }
    },
    {
      "type": "Feature",
      "properties": {
        "norad_id": 44850,
        "name": "COSMOS 2544 (759)",
        "group": "gnss",
        "lat": -37.531745775805696,
        "lon": -79.43580417350418,
        "alt_km": 19103.708588779,
        "timestamp": "2025-12-10T04:57:29.861771+00:00",
        "meta_object_name": "COSMOS 2544 (759)",
        "meta_object_id": "2019-088A",
        "meta_epoch": "2025-12-09T10:44:40.843680",
        "meta_mean_motion": 2.13101756,
        "meta_eccentricity": 0.0013649,
        "meta_inclination": 65.4583,
        "meta_ra_of_asc_node": 80.0686,
        "meta_arg_of_pericenter": 249.1242,
        "meta_mean_anomaly": 110.7462,
        "meta_ephemeris_type": 0,
        "meta_classification_type": "U",
        "meta_norad_cat_id": 44850,
        "meta_element_set_no": 999,
        "meta_rev_at_epoch": 4667,
        "meta_bstar": 0,
        "meta_mean_motion_dot": -1.3e-07,
        "meta_mean_motion_ddot": 0,
        "tle_line1": "1 44850U 19088A   25343.44769495 -.00000013  00000+0  00000+0 0  9995",
        "tle_line2": "2 44850  65.4583  80.0686 0013649 249.1242 110.7462  2.13101756 46679"
      },
      "geometry": {
        "type": "Point",
        "coordinates": [
          -79.43580417350418,
          -37.531745775805696
        ]
      }
    },
    {
      "type": "Feature",
      "properties": {
        "norad_id": 44864,
        "name": "BEIDOU-3 M19 (C41)",
        "group": "gnss",
        "lat": -9.929444190074971,
        "lon": -104.26986770966707,
        "alt_km": 21532.729542798967,
        "timestamp": "2025-12-10T04:57:29.861782+00:00",
        "meta_object_name": "BEIDOU-3 M19 (C41)",
        "meta_object_id": "2019-090A",
        "meta_epoch": "2025-12-09T13:03:36.528192",
        "meta_mean_motion": 1.86230657,
        "meta_eccentricity": 0.00178951,
        "meta_inclination": 56.3907,
        "meta_ra_of_asc_node": 69.0668,
        "meta_arg_of_pericenter": 285.5647,
        "meta_mean_anomaly": 182.4392,
        "meta_ephemeris_type": 0,
        "meta_classification_type": "U",
        "meta_norad_cat_id": 44864,
        "meta_element_set_no": 999,
        "meta_rev_at_epoch": 4070,
        "meta_bstar": 0,
        "meta_mean_motion_dot": -4.9e-07,
        "meta_mean_motion_ddot": 0,
        "tle_line1": "1 44864U 19090A   25343.54417278 -.00000049  00000+0  00000+0 0  9992",
        "tle_line2": "2 44864  56.3907  69.0668 0017895 285.5647 182.4392  1.86230657 40708"
      },
      "geometry": {
        "type": "Point",
        "coordinates": [
          -104.26986770966707,
          -9.929444190074971
        ]
      }
    },
    {
      "type": "Feature",
      "properties": {
        "norad_id": 44865,
        "name": "BEIDOU-3 M20 (C42)",
        "group": "gnss",
        "lat": -54.662575023081786,
        "lon": -0.4045931277934644,
        "alt_km": 21494.200954278094,
        "timestamp": "2025-12-10T04:57:29.861793+00:00",
        "meta_object_name": "BEIDOU-3 M20 (C42)",
        "meta_object_id": "2019-090B",
        "meta_epoch": "2025-12-09T06:01:46.671168",
        "meta_mean_motion": 1.86231243,
        "meta_eccentricity": 0.0014851,
        "meta_inclination": 56.3923,
        "meta_ra_of_asc_node": 69.1112,
        "meta_arg_of_pericenter": 298.012,
        "meta_mean_anomaly": 63.2082,
        "meta_ephemeris_type": 0,
        "meta_classification_type": "U",
        "meta_norad_cat_id": 44865,
        "meta_element_set_no": 999,
        "meta_rev_at_epoch": 4068,
        "meta_bstar": 0,
        "meta_mean_motion_dot": -4.8e-07,
        "meta_mean_motion_ddot": 0,
        "tle_line1": "1 44865U 19090B   25343.25123462 -.00000048  00000+0  00000+0 0  9999",
        "tle_line2": "2 44865  56.3923  69.1112 0014851 298.0120  63.2082  1.86231243 40687"
      },
      "geometry": {
        "type": "Point",
        "coordinates": [
          -0.4045931277934644,
          -54.662575023081786
        ]
      }
    }
  ]
}